[
    {
        "Altitude(m)": 566246.2733000376,
        "Argument of Periapsis(deg)": -0.03013754771062987,
        "Eccentricity": 0.0,
        "Inclination(deg)": 97.0,
        "Latitude(deg)": 22.51692102647632,
        "Longitude(deg)": -46.03846186140447,
        "Mean Anomaly(deg)": 22.708591025583353,
        "RAAN(deg)": 60.00792940482467,
        "Satellite Name": "Starlink Shell 3 1754",
        "Satellite Number": 1754,
        "Semi-Major Axis(m)": 6938478.169268562,
        "Time(s)": 760
    },
    {
        "Altitude(m)": 566312.5375655042,
        "Argument of Periapsis(deg)": -0.030534094391032898,
        "Eccentricity": 0.0,
        "Inclination(deg)": 97.0,
        "Latitude(deg)": 23.139814362023035,
        "Longitude(deg)": -46.16980067642134,
        "Mean Anomaly(deg)": 23.334067223288358,
        "RAAN(deg)": 60.008033739098686,
        "Satellite Name": "Starlink Shell 3 1754",
        "Satellite Number": 1754,
        "Semi-Major Axis(m)": 6938478.169268562,
        "Time(s)": 770
    },
    {
        "Altitude(m)": 566382.1038980129,
        "Argument of Periapsis(deg)": -0.030930641071435925,
        "Eccentricity": 0.0,
        "Inclination(deg)": 97.0,
        "Latitude(deg)": 23.76260747350765,
        "Longitude(deg)": -46.30196955043169,
        "Mean Anomaly(deg)": 23.959543420993356,
        "RAAN(deg)": 60.00813807337269,
        "Satellite Name": "Starlink Shell 3 1754",
        "Satellite Number": 1754,
        "Semi-Major Axis(m)": 6938478.169268562,
        "Time(s)": 780
    },
    {
        "Altitude(m)": 566454.9119325413,
        "Argument of Periapsis(deg)": -0.031327187751838945,
        "Eccentricity": 0.0,
        "Inclination(deg)": 97.0,
        "Latitude(deg)": 24.385296990413956,
        "Longitude(deg)": -46.43500113962854,
        "Mean Anomaly(deg)": 24.585019618698418,
        "RAAN(deg)": 60.008242407646705,
        "Satellite Name": "Starlink Shell 3 1754",
        "Satellite Number": 1754,
        "Semi-Major Axis(m)": 6938478.169268562,
        "Time(s)": 790
    },
    {
        "Altitude(m)": 566530.8998811761,
        "Argument of Periapsis(deg)": -0.031723734432241975,
        "Eccentricity": 0.0,
        "Inclination(deg)": 97.0,
        "Latitude(deg)": 25.00787950859664,
        "Longitude(deg)": -46.56892963528352,
        "Mean Anomaly(deg)": 25.210495816403487,
        "RAAN(deg)": 60.008346741920704,
        "Satellite Name": "Starlink Shell 3 1754",
        "Satellite Number": 1754,
        "Semi-Major Axis(m)": 6938478.169268562,
        "Time(s)": 800
    },
    {
        "Altitude(m)": 566610.0045670844,
        "Argument of Periapsis(deg)": -0.032120281112645,
        "Eccentricity": 0.0,
        "Inclination(deg)": 97.0,
        "Latitude(deg)": 25.630351587505995,
        "Longitude(deg)": -46.703790314077835,
        "Mean Anomaly(deg)": 25.835972014108542,
        "RAAN(deg)": 60.00845107619472,
        "Satellite Name": "Starlink Shell 3 1754",
        "Satellite Number": 1754,
        "Semi-Major Axis(m)": 6938478.169268562,
        "Time(s)": 810
    },
    {
        "Altitude(m)": 566692.161459144,
        "Argument of Periapsis(deg)": -0.03251682779304802,
        "Eccentricity": 0.0,
        "Inclination(deg)": 97.0,
        "Latitude(deg)": 26.252709747211103,
        "Longitude(deg)": -46.8396190913856,
        "Mean Anomaly(deg)": 26.46144821181355,
        "RAAN(deg)": 60.00855541046872,
        "Satellite Name": "Starlink Shell 3 1754",
        "Satellite Number": 1754,
        "Semi-Major Axis(m)": 6938478.169268562,
        "Time(s)": 820
    },
    {
        "Altitude(m)": 566777.304707194,
        "Argument of Periapsis(deg)": -0.032913374473451044,
        "Eccentricity": 0.0,
        "Inclination(deg)": 97.0,
        "Latitude(deg)": 26.874950465206766,
        "Longitude(deg)": -46.976453590585926,
        "Mean Anomaly(deg)": 27.086924409518595,
        "RAAN(deg)": 60.008659744742744,
        "Satellite Name": "Starlink Shell 3 1754",
        "Satellite Number": 1754,
        "Semi-Major Axis(m)": 6938478.169268562,
        "Time(s)": 830
    },
    {
        "Altitude(m)": 566865.3671779024,
        "Argument of Periapsis(deg)": -0.03330992115385407,
        "Eccentricity": 0.0,
        "Inclination(deg)": 97.0,
        "Latitude(deg)": 27.497070172993173,
        "Longitude(deg)": -47.11433270288109,
        "Mean Anomaly(deg)": 27.712400607223657,
        "RAAN(deg)": 60.00876407901676,
        "Satellite Name": "Starlink Shell 3 1754",
        "Satellite Number": 1754,
        "Semi-Major Axis(m)": 6938478.169268562,
        "Time(s)": 840
    },
    {
        "Altitude(m)": 566956.2804912183,
        "Argument of Periapsis(deg)": -0.0337064678342571,
        "Eccentricity": 0.0,
        "Inclination(deg)": 97.0,
        "Latitude(deg)": 28.119065252411676,
        "Longitude(deg)": -47.25329615073085,
        "Mean Anomaly(deg)": 28.33787680492871,
        "RAAN(deg)": 60.00886841329077,
        "Satellite Name": "Starlink Shell 3 1754",
        "Satellite Number": 1754,
        "Semi-Major Axis(m)": 6938478.169268562,
        "Time(s)": 850
    },
    {
        "Altitude(m)": 567049.9750573846,
        "Argument of Periapsis(deg)": -0.03410301451466012,
        "Eccentricity": 0.0,
        "Inclination(deg)": 97.0,
        "Latitude(deg)": 28.740932031718394,
        "Longitude(deg)": -47.39338573612764,
        "Mean Anomaly(deg)": 28.963353002633784,
        "RAAN(deg)": 60.008972747564755,
        "Satellite Name": "Starlink Shell 3 1754",
        "Satellite Number": 1754,
        "Semi-Major Axis(m)": 6938478.169268562,
        "Time(s)": 860
    },
    {
        "Altitude(m)": 567146.3801145126,
        "Argument of Periapsis(deg)": -0.034499561195063144,
        "Eccentricity": 0.0,
        "Inclination(deg)": 97.0,
        "Latitude(deg)": 29.36266678138215,
        "Longitude(deg)": -47.53464407156705,
        "Mean Anomaly(deg)": 29.58882920033878,
        "RAAN(deg)": 60.009077081838775,
        "Satellite Name": "Starlink Shell 3 1754",
        "Satellite Number": 1754,
        "Semi-Major Axis(m)": 6938478.169268562,
        "Time(s)": 870
    },
    {
        "Altitude(m)": 567245.4237666645,
        "Argument of Periapsis(deg)": -0.03489610787546617,
        "Eccentricity": 0.0,
        "Inclination(deg)": 97.0,
        "Latitude(deg)": 29.984265709582914,
        "Longitude(deg)": -47.67711583691935,
        "Mean Anomaly(deg)": 30.21430539804379,
        "RAAN(deg)": 60.00918141611279,
        "Satellite Name": "Starlink Shell 3 1754",
        "Satellite Number": 1754,
        "Semi-Major Axis(m)": 6938478.169268562,
        "Time(s)": 880
    },
    {
        "Altitude(m)": 567347.0330224675,
        "Argument of Periapsis(deg)": -0.0352926545558692,
        "Eccentricity": 0.0,
        "Inclination(deg)": 97.0,
        "Latitude(deg)": 30.605724957394052,
        "Longitude(deg)": -47.820847360100856,
        "Mean Anomaly(deg)": 30.839781595748896,
        "RAAN(deg)": 60.009285750386795,
        "Satellite Name": "Starlink Shell 3 1754",
        "Satellite Number": 1754,
        "Semi-Major Axis(m)": 6938478.169268562,
        "Time(s)": 890
    },
    {
        "Altitude(m)": 567451.1338341793,
        "Argument of Periapsis(deg)": -0.035689201236272214,
        "Eccentricity": 0.0,
        "Inclination(deg)": 97.0,
        "Latitude(deg)": 31.227040593624096,
        "Longitude(deg)": -47.96588620286353,
        "Mean Anomaly(deg)": 31.465257793453908,
        "RAAN(deg)": 60.00939008466081,
        "Satellite Name": "Starlink Shell 3 1754",
        "Satellite Number": 1754,
        "Semi-Major Axis(m)": 6938478.169268562,
        "Time(s)": 900
    },
    {
        "Altitude(m)": 567557.651137236,
        "Argument of Periapsis(deg)": -0.036085747916675244,
        "Eccentricity": 0.0,
        "Inclination(deg)": 97.0,
        "Latitude(deg)": 31.84820860929415,
        "Longitude(deg)": -48.112282264951894,
        "Mean Anomaly(deg)": 32.090733991159006,
        "RAAN(deg)": 60.00949441893482,
        "Satellite Name": "Starlink Shell 3 1754",
        "Satellite Number": 1754,
        "Semi-Major Axis(m)": 6938478.169268562,
        "Time(s)": 910
    },
    {
        "Altitude(m)": 567666.5088902425,
        "Argument of Periapsis(deg)": -0.03648229459707827,
        "Eccentricity": 0.0,
        "Inclination(deg)": 97.0,
        "Latitude(deg)": 32.469224911725,
        "Longitude(deg)": -48.260087381290546,
        "Mean Anomaly(deg)": 32.716210188863975,
        "RAAN(deg)": 60.00959875320882,
        "Satellite Name": "Starlink Shell 3 1754",
        "Satellite Number": 1754,
        "Semi-Major Axis(m)": 6938478.169268562,
        "Time(s)": 920
    },
    {
        "Altitude(m)": 567777.6301153679,
        "Argument of Periapsis(deg)": -0.0368788412774813,
        "Eccentricity": 0.0,
        "Inclination(deg)": 97.0,
        "Latitude(deg)": 33.09008531820778,
        "Longitude(deg)": -48.409354925518215,
        "Mean Anomaly(deg)": 33.34168638656903,
        "RAAN(deg)": 60.009703087482826,
        "Satellite Name": "Starlink Shell 3 1754",
        "Satellite Number": 1754,
        "Semi-Major Axis(m)": 6938478.169268562,
        "Time(s)": 930
    },
    {
        "Altitude(m)": 567890.9369391459,
        "Argument of Periapsis(deg)": -0.037275387957884314,
        "Eccentricity": 0.0,
        "Inclination(deg)": 97.0,
        "Latitude(deg)": 33.7107855492222,
        "Longitude(deg)": -48.56014093321924,
        "Mean Anomaly(deg)": 33.96716258427409,
        "RAAN(deg)": 60.00980742175684,
        "Satellite Name": "Starlink Shell 3 1754",
        "Satellite Number": 1754,
        "Semi-Major Axis(m)": 6938478.169268562,
        "Time(s)": 940
    }
]